{
  "type": "FeatureCollection",
  "features": [
    {
      "type": "Feature",
      "properties": {
        "norad_id": 37967,
        "name": "COSMOS 2251 DEB",
        "group": "cosmos-2251-debris",
        "lat": 69.99771479652274,
        "lon": 164.02736815368897,
        "alt_km": 855.2450361520487,
        "timestamp": "2025-12-26T09:30:54.037930+00:00",
        "meta_object_name": "COSMOS 2251 DEB",
        "meta_object_id": "1993-036BPS",
        "meta_epoch": "2025-12-25T14:48:50.438880",
        "meta_mean_motion": 14.4066325,
        "meta_eccentricity": 0.0151034,
        "meta_inclination": 74.0157,
        "meta_ra_of_asc_node": 113.525,
        "meta_arg_of_pericenter": 249.5941,
        "meta_mean_anomaly": 108.8939,
        "meta_ephemeris_type": 0,
        "meta_classification_type": "U",
        "meta_norad_cat_id": 37967,
        "meta_element_set_no": 999,
        "meta_rev_at_epoch": 64921,
        "meta_bstar": 0.0020469,
        "meta_mean_motion_dot": 7.459e-05,
        "meta_mean_motion_ddot": 0,
        "tle_line1": "1 37967U 93036BPS 25359.61725045  .00007459  00000+0  20469-2 0  9994",
        "tle_line2": "2 37967  74.0157 113.5250 0151034 249.5941 108.8939 14.40663250649214"
      },
      "geometry": {
        "type": "Point",
        "coordinates": [
          164.02736815368897,
          69.99771479652274
        ]
      }
    },
    {
      "type": "Feature",
      "properties": {
        "norad_id": 37968,
        "name": "COSMOS 2251 DEB",
        "group": "cosmos-2251-debris",
        "lat": -52.0231092341153,
        "lon": -138.25471617757248,
        "alt_km": 534.9338323784059,
        "timestamp": "2025-12-26T09:30:54.037941+00:00",
        "meta_object_name": "COSMOS 2251 DEB",
        "meta_object_id": "1993-036BPT",
        "meta_epoch": "2025-12-21T00:10:33.901248",
        "meta_mean_motion": 15.00806785,
        "meta_eccentricity": 0.00805513,
        "meta_inclination": 74.0006,
        "meta_ra_of_asc_node": 254.2977,
        "meta_arg_of_pericenter": 7.8808,
        "meta_mean_anomaly": 352.3622,
        "meta_ephemeris_type": 0,
        "meta_classification_type": "U",
        "meta_norad_cat_id": 37968,
        "meta_element_set_no": 999,
        "meta_rev_at_epoch": 60343,
        "meta_bstar": 0.00064941669,
        "meta_mean_motion_dot": 8.807e-05,
        "meta_mean_motion_ddot": 0,
        "tle_line1": "1 37968U 93036BPT 25355.00733682  .00008807  00000+0  64942-3 0  9993",
        "tle_line2": "2 37968  74.0006 254.2977 0080551   7.8808 352.3622 15.00806785603437"
      },
      "geometry": {
        "type": "Point",
        "coordinates": [
          -138.25471617757248,
          -52.0231092341153
        ]
      }
    },
    {
      "type": "Feature",
      "properties": {
        "norad_id": 37971,
        "name": "COSMOS 2251 DEB",
        "group": "cosmos-2251-debris",
        "lat": -7.621373791347852,
        "lon": -161.7173966315573,
        "alt_km": 694.8989522147876,
        "timestamp": "2025-12-26T09:30:54.037951+00:00",
        "meta_object_name": "COSMOS 2251 DEB",
        "meta_object_id": "1993-036BPW",
        "meta_epoch": "2025-12-21T19:16:34.897152",
        "meta_mean_motion": 14.48757325,
        "meta_eccentricity": 0.00659406,
        "meta_inclination": 73.9924,
        "meta_ra_of_asc_node": 24.7096,
        "meta_arg_of_pericenter": 161.9609,
        "meta_mean_anomaly": 198.3914,
        "meta_ephemeris_type": 0,
        "meta_classification_type": "U",
        "meta_norad_cat_id": 37971,
        "meta_element_set_no": 999,
        "meta_rev_at_epoch": 60809,
        "meta_bstar": 0.0013046337,
        "meta_mean_motion_dot": 5.035e-05,
        "meta_mean_motion_ddot": 0,
        "tle_line1": "1 37971U 93036BPW 25355.80318168  .00005035  00000+0  13046-2 0  9991",
        "tle_line2": "2 37971  73.9924  24.7096 0065940 161.9609 198.3914 14.48757325608091"
      },
      "geometry": {
        "type": "Point",
        "coordinates": [
          -161.7173966315573,
          -7.621373791347852
        ]
      }
    },
    {
      "type": "Feature",
      "properties": {
        "norad_id": 37975,
        "name": "COSMOS 2251 DEB",
        "group": "cosmos-2251-debris",
        "lat": -5.01379079277315,
        "lon": -64.18136185252236,
        "alt_km": 621.0586083739399,
        "timestamp": "2025-12-26T09:30:54.037963+00:00",
        "meta_object_name": "COSMOS 2251 DEB",
        "meta_object_id": "1993-036BQA",
        "meta_epoch": "2025-12-24T13:38:18.210912",
        "meta_mean_motion": 14.76642504,
        "meta_eccentricity": 0.00942439,
        "meta_inclination": 74.0025,
        "meta_ra_of_asc_node": 300.8495,
        "meta_arg_of_pericenter": 287.7537,
        "meta_mean_anomaly": 71.3369,
        "meta_ephemeris_type": 0,
        "meta_classification_type": "U",
        "meta_norad_cat_id": 37975,
        "meta_element_set_no": 999,
        "meta_rev_at_epoch": 69920,
        "meta_bstar": 0.0036103843,
        "meta_mean_motion_dot": 0.00027223,
        "meta_mean_motion_ddot": 0,
        "tle_line1": "1 37975U 93036BQA 25358.56826633  .00027223  00000+0  36104-2 0  9995",
        "tle_line2": "2 37975  74.0025 300.8495 0094243 287.7537  71.3369 14.76642504699205"
      },
      "geometry": {
        "type": "Point",
        "coordinates": [
          -64.18136185252236,
          -5.01379079277315
        ]
      }
    },
    {
      "type": "Feature",
      "properties": {
        "norad_id": 37985,
        "name": "COSMOS 2251 DEB",
        "group": "cosmos-2251-debris",
        "lat": -29.99453179757874,
        "lon": 70.19003102463037,
        "alt_km": 792.0364596128156,
        "timestamp": "2025-12-26T09:30:54.037973+00:00",
        "meta_object_name": "COSMOS 2251 DEB",
        "meta_object_id": "1993-036BQL",
        "meta_epoch": "2025-12-24T23:04:55.384032",
        "meta_mean_motion": 14.3548661,
        "meta_eccentricity": 0.00213169,
        "meta_inclination": 74.0246,
        "meta_ra_of_asc_node": 243.3046,
        "meta_arg_of_pericenter": 2.8106,
        "meta_mean_anomaly": 357.3162,
        "meta_ephemeris_type": 0,
        "meta_classification_type": "U",
        "meta_norad_cat_id": 37985,
        "meta_element_set_no": 999,
        "meta_rev_at_epoch": 65092,
        "meta_bstar": 4.6643304e-05,
        "meta_mean_motion_dot": 1.08e-06,
        "meta_mean_motion_ddot": 0,
        "tle_line1": "1 37985U 93036BQL 25358.96175213  .00000108  00000+0  46643-4 0  9995",
        "tle_line2": "2 37985  74.0246 243.3046 0021316   2.8106 357.3162 14.35486610650926"
      },
      "geometry": {
        "type": "Point",
        "coordinates": [
          70.19003102463037,
          -29.99453179757874
        ]
      }
    },
    {
      "type": "Feature",
      "properties": {
        "norad_id": 37988,
        "name": "COSMOS 2251 DEB",
        "group": "cosmos-2251-debris",
        "lat": 52.235805526501714,
        "lon": 19.283185832021854,
        "alt_km": 618.2199144672222,
        "timestamp": "2025-12-26T09:30:54.037983+00:00",
        "meta_object_name": "COSMOS 2251 DEB",
        "meta_object_id": "1993-036BQP",
        "meta_epoch": "2025-12-19T02:22:34.688640",
        "meta_mean_motion": 14.6891967,
        "meta_eccentricity": 0.00635463,
        "meta_inclination": 74.062,
        "meta_ra_of_asc_node": 11.7337,
        "meta_arg_of_pericenter": 47.3595,
        "meta_mean_anomaly": 313.2907,
        "meta_ephemeris_type": 0,
        "meta_classification_type": "U",
        "meta_norad_cat_id": 37988,
        "meta_element_set_no": 999,
        "meta_rev_at_epoch": 23489,
        "meta_bstar": 0.00064166354,
        "meta_mean_motion_dot": 3.842e-05,
        "meta_mean_motion_ddot": 0,
        "tle_line1": "1 37988U 93036BQP 25353.09901260  .00003842  00000+0  64166-3 0  9993",
        "tle_line2": "2 37988  74.0620  11.7337 0063546  47.3595 313.2907 14.68919670234897"
      },
      "geometry": {
        "type": "Point",
        "coordinates": [
          19.283185832021854,
          52.235805526501714
        ]
      }
    },
    {
      "type": "Feature",
      "properties": {
        "norad_id": 37993,
        "name": "COSMOS 2251 DEB",
        "group": "cosmos-2251-debris",
        "lat": 61.60300801246632,
        "lon": -71.16710862000704,
        "alt_km": 692.6805986283507,
        "timestamp": "2025-12-26T09:30:54.037993+00:00",
        "meta_object_name": "COSMOS 2251 DEB",
        "meta_object_id": "1993-036BQU",
        "meta_epoch": "2025-12-17T04:37:52.855104",
        "meta_mean_motion": 14.59966404,
        "meta_eccentricity": 0.00218755,
        "meta_inclination": 74.021,
        "meta_ra_of_asc_node": 158.4097,
        "meta_arg_of_pericenter": 246.7183,
        "meta_mean_anomaly": 113.168,
        "meta_ephemeris_type": 0,
        "meta_classification_type": "U",
        "meta_norad_cat_id": 37993,
        "meta_element_set_no": 999,
        "meta_rev_at_epoch": 65382,
        "meta_bstar": 0.0010496489,
        "meta_mean_motion_dot": 5.024e-05,
        "meta_mean_motion_ddot": 0,
        "tle_line1": "1 37993U 93036BQU 25351.19297286  .00005024  00000+0  10496-2 0  9994",
        "tle_line2": "2 37993  74.0210 158.4097 0021875 246.7183 113.1680 14.59966404653827"
      },
      "geometry": {
        "type": "Point",
        "coordinates": [
          -71.16710862000704,
          61.60300801246632
        ]
      }
    }
  ]
}